[{"OBJECT_NAME":"LAPAN-A3","OBJECT_ID":"2016-040E","EPOCH":"2026-03-09T23:01:57.724896","MEAN_MOTION":15.3238951,"ECCENTRICITY":0.00109839,"INCLINATION":97.1488,"RA_OF_ASC_NODE":68.4254,"ARG_OF_PERICENTER":22.062,"MEAN_ANOMALY":338.1093,"EPHEMERIS_TYPE":0,"CLASSIFICATION_TYPE":"U","NORAD_CAT_ID":41603,"ELEMENT_SET_NO":999,"REV_AT_EPOCH":53961,"BSTAR":0.00017567445,"MEAN_MOTION_DOT":5.428e-5,"MEAN_MOTION_DDOT":0},{"OBJECT_NAME":"STARLINK-35617","OBJECT_ID":"2025-259A","EPOCH":"2026-03-09T21:59:43.846080","MEAN_MOTION":15.27597426,"ECCENTRICITY":0.00014513,"INCLINATION":42.9975,"RA_OF_ASC_NODE":273.2752,"ARG_OF_PERICENTER":358.983,"MEAN_ANOMALY":1.1019,"EPHEMERIS_TYPE":0,"CLASSIFICATION_TYPE":"U","NORAD_CAT_ID":66422,"ELEMENT_SET_NO":999,"REV_AT_EPOCH":1952,"BSTAR":0.0014261737,"MEAN_MOTION_DOT":0.00039213,"MEAN_MOTION_DDOT":0}]
